{
    "links": {
        "self": "http://www.neowsapp.com/rest/v1/neo/3780694?api_key=iIulBulltgU6a56xZRHN4H3l9WmuAYTsLGpBGhQ2"
    },
    "id": "3780694",
    "neo_reference_id": "3780694",
    "name": "(2017 PB27)",
    "designation": "2017 PB27",
    "nasa_jpl_url": "http://ssd.jpl.nasa.gov/sbdb.cgi?sstr=3780694",
    "absolute_magnitude_h": 20.7,
    "estimated_diameter": {
        "kilometers": {
            "estimated_diameter_min": 0.1925550782,
            "estimated_diameter_max": 0.4305662442
        },
        "meters": {
            "estimated_diameter_min": 192.5550781879,
            "estimated_diameter_max": 430.566244241
        },
        "miles": {
            "estimated_diameter_min": 0.1196481415,
            "estimated_diameter_max": 0.2675413778
        },
        "feet": {
            "estimated_diameter_min": 631.7424027221,
            "estimated_diameter_max": 1412.6189567557
        }
    },
    "is_potentially_hazardous_asteroid": false,
    "close_approach_data": [
        {
            "close_approach_date": "2017-09-20",
            "close_approach_date_full": "2017-Sep-20 12:23",
            "epoch_date_close_approach": 1505910180000,
            "relative_velocity": {
                "kilometers_per_second": "1.7519271284",
                "kilometers_per_hour": "6306.9376623668",
                "miles_per_hour": "3918.8857935967"
            },
            "miss_distance": {
                "astronomical": "0.3570254361",
                "lunar": "138.8828946429",
                "kilometers": "53410244.776381107",
                "miles": "33187587.1751769966"
            },
            "orbiting_body": "Earth"
        }
    ],
    "orbital_data": {
        "orbit_id": "12",
        "orbit_determination_date": "2017-11-15 06:24:08",
        "first_observation_date": "2017-08-15",
        "last_observation_date": "2017-11-14",
        "data_arc_in_days": 91,
        "observations_used": 63,
        "orbit_uncertainty": "5",
        "minimum_orbit_intersection": ".305561",
        "jupiter_tisserand_invariant": "3.501",
        "epoch_osculation": "2459000.5",
        "eccentricity": ".4252044608344135",
        "semi_major_axis": "2.242814906678511",
        "inclination": "6.281425335749802",
        "ascending_node_longitude": "277.7961501390313",
        "orbital_period": "1226.841837485123",
        "perihelion_distance": "1.289160003532889",
        "perihelion_argument": "71.32860851992425",
        "aphelion_distance": "3.196469809824133",
        "perihelion_time": "2459223.800614797429",
        "mean_anomaly": "294.4754809700161",
        "mean_motion": ".2934363574835013",
        "equinox": "J2000",
        "orbit_class": {
            "orbit_class_type": "AMO",
            "orbit_class_description": "Near-Earth asteroid orbits similar to that of 1221 Amor",
            "orbit_class_range": "1.017 AU < q (perihelion) < 1.3 AU"
        }
    },
    "is_sentry_object": false
}